var searchData=
[
  ['scalar_0',['Scalar',['../classast_1_1Quantity.html#a8616d69c2c54e37311da65291bb029e4',1,'ast::Quantity']]],
  ['scale_1',['Scale',['../classast_1_1Unit.html#aac378ff19aece3483b509927dadfe0ff',1,'ast::Unit']]],
  ['scale_2',['scale',['../classast_1_1Unit.html#a2b697ff6be1a8f098a668a13b4c2cb9d',1,'ast::Unit']]],
  ['secant_3',['secant',['../group__NLE.html#gab0dea09a12487e53d0b32c0af1d2d597',1,'ast']]],
  ['second_4',['Second',['../classast_1_1Unit.html#a59806bb8a76d0385fb5b2004e0b22046',1,'ast::Unit']]],
  ['second_5',['second',['../classast_1_1DaySecDuration.html#a470f0c2ca4295d04d8d83990021bd2d6',1,'ast::DaySecDuration']]],
  ['seek_6',['seek',['../classast_1_1BKVParser.html#ab5e3b9d20a38dd3718980b64de2233e1',1,'ast::BKVParser']]],
  ['setabstol_7',['setAbsTol',['../classast_1_1UnarySolver.html#aff655ba2415cd81bde896134a6de1ba0',1,'ast::UnarySolver']]],
  ['setallowcomment_8',['setAllowComment',['../classast_1_1BKVParser.html#ac3b3fda438e76bbc8d86755773dc1d8a',1,'ast::BKVParser']]],
  ['setaltitude_9',['setAltitude',['../classast_1_1GeoCoordinate.html#aeeeceeb47007db60e26bcc18ff4c83a2',1,'ast::GeoCoordinate::setAltitude()'],['../classast_1_1LatLonAlt.html#a8aabf8b1347f6e2da80456734beb80ac',1,'ast::LatLonAlt::setAltitude()'],['../classast_1_1CircularOrbitDesigner.html#a2a0c0687c187d965d04d91e1368cac06',1,'ast::CircularOrbitDesigner::setAltitude()'],['../classast_1_1SunSynchronousOrbitDesigner.html#a08592d2c764c5183eb02f1e08c000e80',1,'ast::SunSynchronousOrbitDesigner::setAltitude()']]],
  ['setamount_10',['setAmount',['../classast_1_1Dimension.html#a031802a469ec9f45be4c7d4cf1387385',1,'ast::Dimension']]],
  ['setangle_11',['setAngle',['../classast_1_1Dimension.html#aca6ceca9be9d41c8bfaddd9730895806',1,'ast::Dimension']]],
  ['setangleaxis_12',['setAngleAxis',['../classast_1_1Rotation.html#adeb93109e695abcd2121a7f057935772',1,'ast::Rotation::setAngleAxis(double angle, const Vector3d &amp;axis)'],['../classast_1_1Rotation.html#a7e7ab0b605030de8473f76e7b7f79cc6',1,'ast::Rotation::setAngleAxis(const AngleAxis &amp;aa)']]],
  ['setapogeealtitude_13',['setApogeeAltitude',['../classast_1_1CriticallyInclinedOrbitDesigner.html#a84c82c89bab8f7d058ecabd3299d5b9e',1,'ast::CriticallyInclinedOrbitDesigner']]],
  ['setargperidot_14',['setArgPeriDot',['../classast_1_1J2J4Analytical.html#ae912a66519280df7e3ec4ffb44a3943a',1,'ast::J2J4Analytical']]],
  ['setargumentofperiapsis_15',['setArgumentOfPeriapsis',['../classast_1_1SimpleOrbitDesigner.html#a3aee12bf9e1b2d7a9abee8fd8cb337bb',1,'ast::SimpleOrbitDesigner']]],
  ['setattitude_16',['setAttitude',['../classast_1_1GfxCelestialBody.html#a685a6b3207dd49ba545fbf6af2b88aaa',1,'ast::GfxCelestialBody']]],
  ['setattrbool_17',['setAttrBool',['../classast_1_1Object.html#a122df9a145e17bcc8e4c63456cb4fc2c',1,'ast::Object']]],
  ['setattrdouble_18',['setAttrDouble',['../classast_1_1Object.html#a8f0609ede3a2f7761a653b8ff11425bb',1,'ast::Object']]],
  ['setattrint_19',['setAttrInt',['../classast_1_1Object.html#a6897962ac26a81ce4b5d843fbaefb868',1,'ast::Object']]],
  ['setattrstring_20',['setAttrString',['../classast_1_1Object.html#a7b3f2da3e70da98c69de5f5d99cf6186',1,'ast::Object']]],
  ['setbackgroundcolor_21',['setBackgroundColor',['../classast_1_1AstGfxAPI.html#aae7d74c3ad7d81372d217086275bdbce',1,'ast::AstGfxAPI::setBackgroundColor()'],['../classast_1_1GfxMain.html#af84b0455a1e0227e231cda5e25805613',1,'ast::GfxMain::setBackgroundColor()']]],
  ['setcolor_22',['setColor',['../classast_1_1GfxCelestialBody.html#a27c48cf0928c7cb55e6732f07f9d6d73',1,'ast::GfxCelestialBody']]],
  ['setcurrent_23',['setCurrent',['../classast_1_1Dimension.html#a82b0ccba0fef1df739d54040e94d3bd1',1,'ast::Dimension']]],
  ['setdata_24',['setData',['../classast_1_1LeapSecond.html#a9c1b2fa4a302aa4d99ea770b65fed6ec',1,'ast::LeapSecond']]],
  ['setdatadir_25',['setDataDir',['../classast_1_1DataContext.html#a55723c2bde9815b7c68eb3f42f47c23e',1,'ast::DataContext']]],
  ['setdayfractional_26',['setDayFractional',['../classast_1_1JulianDate.html#addfe786b99fd2337bf91b32158b8d62c',1,'ast::JulianDate::setDayFractional()'],['../classast_1_1ModJulianDate.html#addfe786b99fd2337bf91b32158b8d62c',1,'ast::ModJulianDate::setDayFractional()']]],
  ['setdaysecond_27',['setDaySecond',['../classast_1_1JulianDate.html#adf1272b09b6178310814e64c8559dd71',1,'ast::JulianDate::setDaySecond()'],['../classast_1_1ModJulianDate.html#adf1272b09b6178310814e64c8559dd71',1,'ast::ModJulianDate::setDaySecond()']]],
  ['setdefaultdata_28',['setDefaultData',['../classast_1_1LeapSecond.html#a547b20b20d6e93be2de6874f542dfa49',1,'ast::LeapSecond']]],
  ['setdirection_29',['setDirection',['../classast_1_1CriticallyInclinedOrbitDesigner.html#a310b1f86f1b3a28b009b38b21ef5e05d',1,'ast::CriticallyInclinedOrbitDesigner']]],
  ['seteccentricity_30',['setEccentricity',['../classast_1_1SimpleOrbitDesigner.html#af8e00f8a3e4e8c7ed50a90f3168effe9',1,'ast::SimpleOrbitDesigner']]],
  ['setelapsedtime_31',['setElapsedTime',['../classast_1_1SimTime.html#ae7222923444168dede33722b58b002d6',1,'ast::SimTime']]],
  ['setelse_32',['setElse',['../classast_1_1ExprIf.html#ace2bff89a0d8b9d27bd7c5b4bf74d768',1,'ast::ExprIf']]],
  ['setentry_33',['setEntry',['../classast_1_1EOP.html#a76a56437b9340a5521d2756f023a6c63',1,'ast::EOP::setEntry()'],['../classast_1_1SpaceWeather.html#a98a220897ba6c103036a66b1cfae2ff2',1,'ast::SpaceWeather::setEntry()']]],
  ['setepoch_34',['setEpoch',['../classast_1_1HPOPEquation.html#a4c7205d86fc1057cf517d1fe33f743ed',1,'ast::HPOPEquation']]],
  ['seterrstring_35',['setErrString',['../classast_1_1Interpreter.html#a22070f300a16b4cda2a5a307f7583c67',1,'ast::Interpreter']]],
  ['setexpr_36',['setExpr',['../classast_1_1Variable.html#a2c74e1fe1b900a72483b99b865cdce3f',1,'ast::Variable']]],
  ['setforcemodel_37',['setForceModel',['../classast_1_1HPOP.html#a07326436dca147ced7160576116b1091',1,'ast::HPOP::setForceModel()'],['../classast_1_1HPOPEquation.html#aedba448027df557c5b049015c408f375',1,'ast::HPOPEquation::setForceModel()']]],
  ['setfromunit_38',['setFromUnit',['../classast_1_1UnitConverter.html#a976e637f70d0c06868a50cbecec3c14f',1,'ast::UnitConverter']]],
  ['setgeometrydefinition_39',['setGeometryDefinition',['../classast_1_1SunSynchronousOrbitDesigner.html#ad9f6cd61c2094423d62b648c07ca6e56',1,'ast::SunSynchronousOrbitDesigner']]],
  ['setidentity_40',['setIdentity',['../classast_1_1Quaternion.html#a6cf468ab3458563971bddd536deba4bc',1,'ast::Quaternion']]],
  ['setimpreciseday_41',['setImpreciseDay',['../classast_1_1JulianDate.html#a87055b6bc22499096b60dac1ce0f67dc',1,'ast::JulianDate::setImpreciseDay()'],['../classast_1_1ModJulianDate.html#a87055b6bc22499096b60dac1ce0f67dc',1,'ast::ModJulianDate::setImpreciseDay()']]],
  ['setinclination_42',['setInclination',['../classast_1_1CircularOrbitDesigner.html#af72ad5616a35967f28eb463cc984e218',1,'ast::CircularOrbitDesigner::setInclination()'],['../classast_1_1SimpleOrbitDesigner.html#af43ee75b42c92b555f9c56c38a89faa6',1,'ast::SimpleOrbitDesigner::setInclination()'],['../classast_1_1StationaryOrbitDesigner.html#a887551c2a93113f4e0f5764dc56e9e9c',1,'ast::StationaryOrbitDesigner::setInclination()'],['../classast_1_1SunSynchronousOrbitDesigner.html#a6811310e4aca456e8f3585f8bee3b870',1,'ast::SunSynchronousOrbitDesigner::setInclination()']]],
  ['setinitialstepsize_43',['setInitialStepSize',['../classast_1_1ODEVarStepIntegrator.html#ae1f1d5067be5feaaa7054313a53376b6',1,'ast::ODEVarStepIntegrator']]],
  ['setintegrator_44',['setIntegrator',['../classast_1_1HPOP.html#a441808f323a236e9916f7f0e7f774750',1,'ast::HPOP']]],
  ['setinterporder_45',['setInterpOrder',['../classast_1_1IAUXYSPrecomputed.html#a1d813a113419c39fd2c60c09078f9afd',1,'ast::IAUXYSPrecomputed']]],
  ['setkinematicrotation_46',['setKinematicRotation',['../classast_1_1KinematicTransform.html#aebef38defa3115ed88ac05785478d680',1,'ast::KinematicTransform']]],
  ['setlatitude_47',['setLatitude',['../classast_1_1GeoCoordinate.html#a79d1d3d84b292a93a901e027d0bb8b34',1,'ast::GeoCoordinate::setLatitude()'],['../classast_1_1LatLonAlt.html#a2659a98f04f229f371cc27b80f7f9f0c',1,'ast::LatLonAlt::setLatitude()']]],
  ['setlatlonalt_48',['setLatLonAlt',['../classast_1_1GeoCoordinate.html#a30fda041490b282feec98f6a4f5b4bc9',1,'ast::GeoCoordinate']]],
  ['setlength_49',['setLength',['../classast_1_1Dimension.html#ac51e7c5ed02f0ec3b96336367cc72538',1,'ast::Dimension']]],
  ['setlimits_50',['setLimits',['../classast_1_1BlockSaturation.html#a5d96e35e56c7be8eaf75de2bf1799a28',1,'ast::BlockSaturation']]],
  ['setlongitude_51',['setLongitude',['../classast_1_1GeoCoordinate.html#a5a2255e5fad654fac57ab73f0fc50e12',1,'ast::GeoCoordinate::setLongitude()'],['../classast_1_1LatLonAlt.html#ade46da7eae11e857ffff036f3f0848e2',1,'ast::LatLonAlt::setLongitude()']]],
  ['setlowerlimit_52',['setLowerLimit',['../classast_1_1BlockDeadZone.html#ac7581bf927467e6a31bed25d9bac1a22',1,'ast::BlockDeadZone::setLowerLimit()'],['../classast_1_1BlockSaturation.html#a19fa503c6204e4e9a6341dc4ddf6b4c9',1,'ast::BlockSaturation::setLowerLimit()']]],
  ['setluminous_53',['setLuminous',['../classast_1_1Dimension.html#a462b50b59a6be8adcac914f9c6b7420d',1,'ast::Dimension']]],
  ['setmass_54',['setMass',['../classast_1_1Dimension.html#a4583c991e03ad6529475f028fd4d450c',1,'ast::Dimension']]],
  ['setmatrix_55',['setMatrix',['../classast_1_1Rotation.html#aacc0d41b87c3a9a786b44bfa22389c17',1,'ast::Rotation']]],
  ['setmaxabserr_56',['setMaxAbsErr',['../classast_1_1ODEVarStepIntegrator.html#a111fc039918aa8b5cae9063078d68a2e',1,'ast::ODEVarStepIntegrator']]],
  ['setmaxiter_57',['setMaxIter',['../classast_1_1UnarySolver.html#a3d5f3ef6be352367c53a7076183cf246',1,'ast::UnarySolver']]],
  ['setmaxloaddegree_58',['setMaxLoadDegree',['../classast_1_1GravityFieldLoader.html#a5b3bfe329480b0e273594fb0be4e2f7c',1,'ast::GravityFieldLoader']]],
  ['setmaxloadorder_59',['setMaxLoadOrder',['../classast_1_1GravityFieldLoader.html#a18ead310481da288d31aa6cceb01a8b4',1,'ast::GravityFieldLoader']]],
  ['setmaxrelerr_60',['setMaxRelErr',['../classast_1_1ODEVarStepIntegrator.html#afa1a4caa63040e102a67792bec067b42',1,'ast::ODEVarStepIntegrator']]],
  ['setmeananomalydot_61',['setMeanAnomalyDot',['../classast_1_1J2J4Analytical.html#acc7b0f95b2d9ab3d93816342de4ef8f5',1,'ast::J2J4Analytical']]],
  ['setnodedefinition_62',['setNodeDefinition',['../classast_1_1SunSynchronousOrbitDesigner.html#a2f41e85bcc11100e2a5b8721697825d9',1,'ast::SunSynchronousOrbitDesigner']]],
  ['setoperatortype_63',['setOperatorType',['../classast_1_1BlockLogicalOperator.html#aa4fcdd72e0cfdd3b3a4c247329807a09',1,'ast::BlockLogicalOperator::setOperatorType()'],['../classast_1_1BlockRelationalOperator.html#aeeae5c35dc395ff8f8485c92ae54749c',1,'ast::BlockRelationalOperator::setOperatorType()']]],
  ['setorbitalradius_64',['setOrbitalRadius',['../classast_1_1GfxCelestialBody.html#aef42c26ce0f2539f21ad49a7b879d0fe',1,'ast::GfxCelestialBody']]],
  ['setorbitalspeed_65',['setOrbitalSpeed',['../classast_1_1GfxCelestialBody.html#a472e60441c1e5401032969e93d6f95ed',1,'ast::GfxCelestialBody']]],
  ['setparent_66',['setParent',['../classast_1_1SymbolScope.html#a2502fb53c3b6c287634b48cbff274030',1,'ast::SymbolScope']]],
  ['setperigeealtitude_67',['setPerigeeAltitude',['../classast_1_1CriticallyInclinedOrbitDesigner.html#a2c8293b938a5463540ff072f62f08eb9',1,'ast::CriticallyInclinedOrbitDesigner']]],
  ['setposition_68',['setPosition',['../classast_1_1GfxCelestialBody.html#a4738459b8d2f4004df0d96884ee9ad39',1,'ast::GfxCelestialBody']]],
  ['setquaternion_69',['setQuaternion',['../classast_1_1Rotation.html#a704b1e1b7ec3d0e94a7664da6e37a2ca',1,'ast::Rotation']]],
  ['setraan_70',['setRAAN',['../classast_1_1CircularOrbitDesigner.html#aa69aaae90682a4261c662cd9cf53d7ff',1,'ast::CircularOrbitDesigner::setRAAN()'],['../classast_1_1CriticallyInclinedOrbitDesigner.html#a44cc46e02c95a0ce7971bd3c8596b83d',1,'ast::CriticallyInclinedOrbitDesigner::setRAAN()']]],
  ['setraandot_71',['setRaanDot',['../classast_1_1J2J4Analytical.html#a7b0fbd3170a83c2a6d4489151c059b41',1,'ast::J2J4Analytical']]],
  ['setradius_72',['setRadius',['../classast_1_1GfxCelestialBody.html#a3bc724b98ca7b903ce395092bea2ab50',1,'ast::GfxCelestialBody']]],
  ['setreltol_73',['setRelTol',['../classast_1_1UnarySolver.html#a1474da0302ac85d7817072179a042b2c',1,'ast::UnarySolver']]],
  ['setrightascensionofascendingnode_74',['setRightAscensionOfAscendingNode',['../classast_1_1SimpleOrbitDesigner.html#aa0b74d899c850bf0820cc8793e7ad97d',1,'ast::SimpleOrbitDesigner']]],
  ['setrotation_75',['setRotation',['../classast_1_1KinematicRotation.html#ad88a6774ff5fa851eabf24fda1527b3d',1,'ast::KinematicRotation::setRotation()'],['../classast_1_1Transform.html#adfdc784c153e3da46da7216b4f5310b7',1,'ast::Transform::setRotation()']]],
  ['setrotationrate_76',['setRotationRate',['../classast_1_1KinematicRotation.html#a254e9380af5fc710dea75053b6b819ce',1,'ast::KinematicRotation']]],
  ['setrotationspeed_77',['setRotationSpeed',['../classast_1_1GfxCelestialBody.html#aca0cc1ed55e7c64c3d23406d874bb1f6',1,'ast::GfxCelestialBody']]],
  ['setsemimajoraxis_78',['setSemimajorAxis',['../classast_1_1SimpleOrbitDesigner.html#a86593fdef2a8adbd682b6d3e25a33e7c',1,'ast::SimpleOrbitDesigner']]],
  ['setsignal_79',['setSignal',['../classast_1_1DataPort.html#a7e323e32e7dc572bae45525f63f20c21',1,'ast::DataPort']]],
  ['setsignaldouble_80',['setSignalDouble',['../classast_1_1DataPort.html#a4deed84c4db6a3188a76ee5763c5be3f',1,'ast::DataPort']]],
  ['setsignalint_81',['setSignalInt',['../classast_1_1DataPort.html#a673f1769c576d066110ad5f5994d0460',1,'ast::DataPort']]],
  ['setsignalvector3d_82',['setSignalVector3d',['../classast_1_1DataPort.html#a4c048c39ce01d2e191df1b133e55766c',1,'ast::DataPort']]],
  ['setstartend_83',['setStartEnd',['../classast_1_1TimeInterval.html#ae862852144cf8fed3dbcbbe1d4c3495e',1,'ast::TimeInterval']]],
  ['setstatedata_84',['setStateData',['../classast_1_1BlockDynamicSystem.html#ab39b3425b52c256ac4af8a7e1ac8d836',1,'ast::BlockDynamicSystem']]],
  ['setstepsize_85',['setStepSize',['../classast_1_1ODEFixedStepIntegrator.html#a91b19f7fc8680f3047f892affc932dd0',1,'ast::ODEFixedStepIntegrator']]],
  ['setsubsatellitepoint_86',['setSubsatellitePoint',['../classast_1_1StationaryOrbitDesigner.html#a505d4e119a9531bd551b6e69d800f70e',1,'ast::StationaryOrbitDesigner']]],
  ['setsymbol_87',['setSymbol',['../classast_1_1SymbolScope.html#a94673f3b516b5af9dec3c97d24e7f474',1,'ast::SymbolScope']]],
  ['settemperature_88',['setTemperature',['../classast_1_1Dimension.html#ab9e34c4d9e12aa4583a8b9e45b48e04c',1,'ast::Dimension']]],
  ['settexture_89',['setTexture',['../classast_1_1GfxCelestialBody.html#ac4467ceb3658b34079513ff7968a00e6',1,'ast::GfxCelestialBody']]],
  ['setthreshold_90',['setThreshold',['../classast_1_1BlockSwitch.html#a7c65e0c84e245a9d7c910a46b194a795',1,'ast::BlockSwitch']]],
  ['settime_91',['setTime',['../classast_1_1Dimension.html#a2c0f20b44c3890a524dde7735cf67669',1,'ast::Dimension']]],
  ['settimepoint_92',['setTimePoint',['../classast_1_1SimTime.html#a1606ab32bdba67f8c78d16906fb5fbe4',1,'ast::SimTime']]],
  ['settounit_93',['setToUnit',['../classast_1_1UnitConverter.html#a6302810bd3650d97bd65d73c36fc53fc',1,'ast::UnitConverter']]],
  ['settransform_94',['setTransform',['../classast_1_1KinematicTransform.html#a28fd7aee564b35e720d744e5691723fe',1,'ast::KinematicTransform']]],
  ['settranslation_95',['setTranslation',['../classast_1_1Transform.html#a0d8c5f5d309b3814955ef1a3b788af25',1,'ast::Transform']]],
  ['settrueanomaly_96',['setTrueAnomaly',['../classast_1_1SimpleOrbitDesigner.html#a510822282b3844fd1957db80ddce1e5a',1,'ast::SimpleOrbitDesigner']]],
  ['setunit_97',['setUnit',['../classast_1_1Quantity.html#a6df5a84f1a98aeafb0e946a832018835',1,'ast::Quantity']]],
  ['setupperlimit_98',['setUpperLimit',['../classast_1_1BlockDeadZone.html#abab6bc25b9ada61d50abc3493e7d6c32',1,'ast::BlockDeadZone::setUpperLimit()'],['../classast_1_1BlockSaturation.html#ab0957e49227f5e4387494bce2946e6b5',1,'ast::BlockSaturation::setUpperLimit()']]],
  ['setvalue_99',['setValue',['../classast_1_1BlockConstant.html#a671daa2e6215be512e6623d5a2a59610',1,'ast::BlockConstant::setValue()'],['../classast_1_1BlockIn.html#aceac6ea6314fae26931bde6a249699a2',1,'ast::BlockIn::setValue()'],['../classast_1_1Expr.html#ab5323e7ed4f8c8ce80e3dc38a50666ab',1,'ast::Expr::setValue()'],['../classast_1_1ExprBlock.html#ac69cf7f2bdb59c19b25729c8f48045ef',1,'ast::ExprBlock::setValue()'],['../classast_1_1ExprCondition.html#a7a6e1dd412203bf110ec9ad2cb8b89e6',1,'ast::ExprCondition::setValue()'],['../classast_1_1ExprIf.html#a7a10387950a0414b9601b77c26da007c',1,'ast::ExprIf::setValue()'],['../classast_1_1ExprWhile.html#a2148b4d1a12a25e4ec05fadfdca976e1',1,'ast::ExprWhile::setValue()'],['../classast_1_1ExprForRange.html#aeb6e14e1bc3d4769708c715a8fd7e737',1,'ast::ExprForRange::setValue()'],['../classast_1_1Op.html#a43a33f642bf99e86c7fb86bc35a311fc',1,'ast::Op::setValue()'],['../classast_1_1Value.html#adbf99fb39b0430da544acd90cc309b35',1,'ast::Value::setValue()'],['../classast_1_1Symbol.html#a9970b0c82129a8b53f00487cd5ef7fb8',1,'ast::Symbol::setValue()'],['../classast_1_1Variable.html#a7c86511d15c1cfed18388c1869dd86fd',1,'ast::Variable::setValue()'],['../classast_1_1Quantity.html#a6438f5549765661de21f35854749f780',1,'ast::Quantity::setValue()'],['../classast_1_1Property.html#aa3ae00a355af546db67c5c048a6a33de',1,'ast::Property::setValue()'],['../classast_1_1PropertyBool.html#a5956c67a07eab8f88c7738dd80c6a22a',1,'ast::PropertyBool::setValue()'],['../classast_1_1PropertyDouble.html#a4b0e1d8bba31beffaf9844ac6a9ebb79',1,'ast::PropertyDouble::setValue()'],['../classast_1_1PropertyInt.html#a9efa925960c72692e3335a687895ed5e',1,'ast::PropertyInt::setValue()'],['../classast_1_1PropertyObject.html#a29077fd9d6ac7df1d366d4b38c3ac0b4',1,'ast::PropertyObject::setValue()'],['../classast_1_1PropertyString.html#a2a0f03da118b66ab54e066f64aa3360e',1,'ast::PropertyString::setValue()'],['../classast_1_1PropertyStruct.html#a6bbdd83ecd988ca4aa4967c757c3b691',1,'ast::PropertyStruct::setValue()']]],
  ['setvaluebool_100',['setValueBool',['../classast_1_1Property.html#a79408f4b38ccc542eb010ec195e8fcc3',1,'ast::Property::setValueBool()'],['../classast_1_1PropertyBool.html#ac57948a5d3219262275fb22543e91336',1,'ast::PropertyBool::setValueBool()'],['../classast_1_1PropertyDouble.html#a3c4b13d44e098405ac437a480073e700',1,'ast::PropertyDouble::setValueBool()'],['../classast_1_1PropertyInt.html#a0bfdff0ab472ad0e8b40f5305c102f2d',1,'ast::PropertyInt::setValueBool()'],['../classast_1_1PropertyString.html#ab624c49f5ee80a84ad374fc89bdfbd99',1,'ast::PropertyString::setValueBool()']]],
  ['setvaluedouble_101',['setValueDouble',['../classast_1_1Property.html#ab1ede58d30f536af50c7087f827b76ab',1,'ast::Property::setValueDouble()'],['../classast_1_1PropertyBool.html#af34d4beafc03628bc8b1e194cef8900f',1,'ast::PropertyBool::setValueDouble()'],['../classast_1_1PropertyDouble.html#aa2d463e4cadc1b010df0c8e23f82c546',1,'ast::PropertyDouble::setValueDouble()'],['../classast_1_1PropertyInt.html#a085ce33b3d5503260f2c456483e43351',1,'ast::PropertyInt::setValueDouble()'],['../classast_1_1PropertyString.html#a6bf3d9f83e498ec8278e6f3726beeb43',1,'ast::PropertyString::setValueDouble()']]],
  ['setvalueint_102',['setValueInt',['../classast_1_1Property.html#a82c70ec8b020db7fe96c27c28a6be773',1,'ast::Property::setValueInt()'],['../classast_1_1PropertyBool.html#adcd2fa046403b0f3e90dfa175a043fee',1,'ast::PropertyBool::setValueInt()'],['../classast_1_1PropertyDouble.html#afb0bc2d36bd36ab2d0a0c078c3fe2c1a',1,'ast::PropertyDouble::setValueInt()'],['../classast_1_1PropertyInt.html#a98d9c2d16f046eeccc62fb6402821b2f',1,'ast::PropertyInt::setValueInt()'],['../classast_1_1PropertyString.html#aea1afc509f4d21da07a449a9085de9b0',1,'ast::PropertyString::setValueInt()']]],
  ['setvaluestring_103',['setValueString',['../classast_1_1Property.html#a00cd32368849b4ec5da23d80ab675024',1,'ast::Property::setValueString()'],['../classast_1_1PropertyBool.html#a138299279543f716c2ab3d0697856fbb',1,'ast::PropertyBool::setValueString()'],['../classast_1_1PropertyDouble.html#acbd2f1fd4b6ece2f5fee8f9aceff1162',1,'ast::PropertyDouble::setValueString()'],['../classast_1_1PropertyInt.html#aacd35cced9864e21d2ba4a2704f5e85d',1,'ast::PropertyInt::setValueString()'],['../classast_1_1PropertyString.html#ab54e1c6143c81ba8c952b3cbf48d8b19',1,'ast::PropertyString::setValueString()']]],
  ['setvelocity_104',['setVelocity',['../classast_1_1KinematicTransform.html#af8b934ffef3e84c4ca45b57d1f51ac1d',1,'ast::KinematicTransform']]],
  ['setwidth_105',['setWidth',['../classast_1_1DataPort.html#ad94a62475895a2478528afb540bcf0de',1,'ast::DataPort']]],
  ['sign_106',['sign',['../namespaceast_1_1math.html#a04a4b8d988da2035897df6832c1182d5',1,'ast::math']]],
  ['sincos_107',['sincos',['../group__Util.html#ga138fdd1a12245781f9122dfef37cabfc',1,'ast']]],
  ['singlestep_108',['singleStep',['../classast_1_1RK4.html#a91552ea8e72b4c86ca94139a5f4f3fe0',1,'ast::RK4::singleStep()'],['../classast_1_1RK8.html#a6ca040ab7b00c6923759e8555820943f',1,'ast::RK8::singleStep()'],['../classast_1_1RKCK.html#aaeb3be4e3dc4e36b85fb9632ecd4ec6b',1,'ast::RKCK::singleStep()'],['../classast_1_1RKF45.html#ae3cd511f728409c9701f16bea236d3cb',1,'ast::RKF45::singleStep()'],['../classast_1_1RKF56.html#a82915b16cb01c08bb9f6e91c7f73b44b',1,'ast::RKF56::singleStep()'],['../classast_1_1RKF78.html#a8f1ec01ee9571bf0a8250d75dc634835',1,'ast::RKF78::singleStep()'],['../classast_1_1RKV8.html#a3fbaff42735d914531775a503ae04d7b',1,'ast::RKV8::singleStep()'],['../classast_1_1IODEIntegrator.html#a34f80d9d607ccf7cadb28f2350e70727',1,'ast::IODEIntegrator::singleStep()']]],
  ['size_109',['size',['../classast_1_1EOP.html#a1d81ece0da0f48b501c1004e184b2f4a',1,'ast::EOP::size()'],['../classast_1_1BlockDynamicSystem.html#ac4e0bf064e2643dbfea6976b95aefcf8',1,'ast::BlockDynamicSystem::size()'],['../classast_1_1ExprContainer.html#a0386326b6e44ca1f14d19c25785aa2a7',1,'ast::ExprContainer::size()'],['../classast_1_1ValArray.html#a02f6b171c8adfd17b6b09695656c805b',1,'ast::ValArray::size()'],['../classast_1_1ValRange.html#aee570694d132d60a797e1093862ffa03',1,'ast::ValRange::size()']]],
  ['skip_110',['skip',['../classast_1_1Scanner.html#af7b1ea37aaf9fb4712b264a7702097e8',1,'ast::Scanner::skip()'],['../classast_1_1StringScanner.html#a83dcf3a9bf9ee9b327eaf93c0ed67fea',1,'ast::StringScanner::skip()'],['../classast_1_1FileScanner.html#a131122901c6294f87282fcd3f4a0557e',1,'ast::FileScanner::skip()'],['../classast_1_1StreamScanner.html#a4676b49efa300d0d87da29a571a0360e',1,'ast::StreamScanner::skip()']]],
  ['skipwhitespace_111',['skipWhitespace',['../classast_1_1Lexer.html#a842ab95ed54c1efa75d4ad386eea9585',1,'ast::Lexer']]],
  ['solarsystem_112',['solarSystem',['../classast_1_1DataContext.html#a12c161c9f2a2dce896249e216112b1df',1,'ast::DataContext']]],
  ['solve_113',['solve',['../classast_1_1BisectionSolver.html#ab0beb85cc18bf602e44ad4fcd2485d65',1,'ast::BisectionSolver::solve()'],['../classast_1_1BrentqSolver.html#a4e3fe47f49ce425f87913c8a4d6f21a4',1,'ast::BrentqSolver::solve()'],['../classast_1_1BrenthSolver.html#aa81235a8ab04ef3cec6fdeba3d7c3773',1,'ast::BrenthSolver::solve()'],['../classast_1_1RidderSolver.html#a1c2c5891960b50ab15ed661a4c889b4e',1,'ast::RidderSolver::solve()'],['../classast_1_1SecantSolver.html#aed7fb6ed88ae1c1459144c4c509c714f',1,'ast::SecantSolver::solve()'],['../classast_1_1IUnarySolver.html#a99602bbf6ea0d132f0aad5259b35bfa2',1,'ast::IUnarySolver::solve()'],['../classast_1_1UnarySolver.html#a097e8c7201ce12695046788db7019b17',1,'ast::UnarySolver::solve()'],['../classast_1_1BisectionSolver.html#a097e8c7201ce12695046788db7019b17',1,'ast::BisectionSolver::solve()'],['../classast_1_1BrentqSolver.html#a097e8c7201ce12695046788db7019b17',1,'ast::BrentqSolver::solve()'],['../classast_1_1BrenthSolver.html#a097e8c7201ce12695046788db7019b17',1,'ast::BrenthSolver::solve()'],['../classast_1_1RidderSolver.html#a097e8c7201ce12695046788db7019b17',1,'ast::RidderSolver::solve()'],['../classast_1_1SecantSolver.html#a097e8c7201ce12695046788db7019b17',1,'ast::SecantSolver::solve()'],['../classast_1_1UnarySolver.html#a99602bbf6ea0d132f0aad5259b35bfa2',1,'ast::UnarySolver::solve()']]],
  ['sortblocks_114',['sortBlocks',['../classast_1_1BlockDynamicSystem.html#a64919d6d8d66ff582a024a06db8e13da',1,'ast::BlockDynamicSystem']]],
  ['spaceweather_115',['spaceWeather',['../classast_1_1DataContext.html#ab522069b2cc15392f226c659e464e29e',1,'ast::DataContext']]],
  ['speed_116',['Speed',['../classast_1_1Dimension.html#a2c300cd84f7c3733747a74580a7f678a',1,'ast::Dimension']]],
  ['squarednorm_117',['squaredNorm',['../classast_1_1Quaternion.html#a9412afb4b27191e26df13b5df394cd38',1,'ast::Quaternion::squaredNorm()'],['../namespaceast_1_1math.html#af5311f732f050ddd8e2bc5884e38b3da',1,'ast::math::squaredNorm()']]],
  ['squarefoot_118',['SquareFoot',['../classast_1_1Unit.html#aa1bb19e4801703b3458ec2fb5c2fda72',1,'ast::Unit']]],
  ['squarekilometer_119',['SquareKilometer',['../classast_1_1Unit.html#af53a5963dadec36fae4ea238570d4dcb',1,'ast::Unit']]],
  ['squaremeter_120',['SquareMeter',['../classast_1_1Unit.html#a6a00a2c79a4ea03cf493acca1e3f6451',1,'ast::Unit']]],
  ['squareyard_121',['SquareYard',['../classast_1_1Unit.html#a878981f9c48d10fca7bf1ea65eab895b',1,'ast::Unit']]],
  ['start_122',['start',['../classast_1_1TimeInterval.html#a92ad94094486d2c3b3207f5bdbfa6e7b',1,'ast::TimeInterval::start()'],['../classast_1_1ExprRange.html#a919f04c0ff5dc66a09c335d062dab53f',1,'ast::ExprRange::start()'],['../classast_1_1ValRange.html#a1ae7f96b7b4e118799be2025fb0ad86e',1,'ast::ValRange::start()']]],
  ['stateatstepend_123',['stateAtStepEnd',['../classast_1_1ODEIntegrator.html#abad815ab9442888f31b66d5c0618c8fd',1,'ast::ODEIntegrator']]],
  ['stateatstepstart_124',['stateAtStepStart',['../classast_1_1ODEIntegrator.html#af22094cba194c3eb8b02c5d7bc871daf',1,'ast::ODEIntegrator']]],
  ['statetemp_125',['stateTemp',['../classast_1_1ODEIntegrator.html#a012958f16afe6f7ae27c41ec0379a652',1,'ast::ODEIntegrator']]],
  ['step_126',['step',['../classast_1_1ExprRange.html#a6178f77bea1ae4906328db1d4b47c8be',1,'ast::ExprRange::step()'],['../classast_1_1ValRange.html#abaf3a17ed0ec8cc782d7482666b91da8',1,'ast::ValRange::step()']]],
  ['stop_127',['stop',['../classast_1_1ExprRange.html#a6ffc88ac10ea5b2a8f965222355cb210',1,'ast::ExprRange::stop()'],['../classast_1_1ValRange.html#a08f0c6c3f27614346257b726228eb61c',1,'ast::ValRange::stop()']]],
  ['stricmp_128',['stricmp',['../namespaceast.html#a2dbc046c9cca54d791ab5bd5739c8953',1,'ast']]],
  ['strnicmp_129',['strnicmp',['../namespaceast.html#ab44707fb5f9cdfc8eaa97a54c0f65fdc',1,'ast']]],
  ['symbol_130',['symbol',['../classast_1_1Dimension.html#a7f3ace4929a6d92b8f7e75a3f58694df',1,'ast::Dimension']]],
  ['symbolscope_131',['SymbolScope',['../classast_1_1SymbolScope.html#a7f5833fd92c32ceda4367e1114d8f8cd',1,'ast::SymbolScope::SymbolScope()=default'],['../classast_1_1SymbolScope.html#a5dc569a8b55eb4c73f0bbb7dec314a51',1,'ast::SymbolScope::SymbolScope(SymbolScope *parent)']]],
  ['syncconversionfactor_132',['syncConversionFactor',['../classast_1_1UnitConverter.html#ad411a6d8311aff5b97f1b5a988a7b7ba',1,'ast::UnitConverter']]]
];
